OBJECT_NAME,OBJECT_ID,EPOCH,MEAN_MOTION,ECCENTRICITY,INCLINATION,RA_OF_ASC_NODE,ARG_OF_PERICENTER,MEAN_ANOMALY,EPHEMERIS_TYPE,CLASSIFICATION_TYPE,NORAD_CAT_ID,ELEMENT_SET_NO,REV_AT_EPOCH,BSTAR,MEAN_MOTION_DOT,MEAN_MOTION_DDOT
LUCAS (JDRS-1),2020-089A,2026-07-18T15:57:23.014944,1.00269545,.00017056,0.0660,268.1468,181.8961,176.5474,0,U,47202,999,2073,0,-.242E-5,0
SXM-7,2020-096A,2026-07-18T05:58:34.260960,1.00271108,.00035516,0.0256,99.8252,18.2487,182.4613,0,U,47240,999,775,0,-.213E-5,0
CMS-01,2020-099A,2026-07-18T16:07:26.200128,1.00270781,.0003403,0.0215,68.4798,200.8022,352.0527,0,U,47256,999,2051,0,0,0
TURKSAT 5A,2021-001A,2026-07-18T04:49:01.187616,1.00273230,.00000276,0.0146,74.0626,320.3888,4.7252,0,U,47306,999,2027,0,.146E-5,0
TIANTONG-1 3,2021-003A,2026-07-18T13:36:47.591136,1.00269878,.0003067,1.7332,341.2966,143.6726,97.1073,0,U,47321,999,2027,0,-.16E-5,0
TJS-6,2021-010A,2026-07-18T12:21:46.816416,1.00273586,.00030826,0.1707,261.2823,240.7072,158.2536,0,U,47613,999,2012,0,.36E-6,0
SBIRS GEO-5 (USA 315),2021-042A,2026-07-18T10:14:59.540928,1.00271352,.0001543,5.0647,329.3642,151.3303,63.0828,0,U,48618,999,1908,0,-.274E-5,0
FENGYUN 4B,2021-047A,2026-07-17T16:43:07.008960,1.00278349,.00068666,0.2267,80.0462,272.8504,297.9386,0,U,48808,999,1887,0,-.339E-5,0
SXM-8,2021-049A,2026-07-17T14:34:46.914816,1.00268602,.00058475,0.0193,51.3182,340.3427,37.2988,0,U,48838,999,1888,0,-.214E-5,0
TIANLIAN 1-05,2021-063A,2026-07-17T16:41:47.148576,1.00273205,.00011056,1.6707,80.4436,87.4798,34.8850,0,U,49011,999,1838,0,.98E-6,0
STAR ONE D2,2021-069A,2026-07-18T07:45:39.235392,1.00272088,.00025961,0.0083,16.6736,120.4273,205.3734,0,U,49055,999,1825,0,0,0
EUTELSAT QUANTUM,2021-069B,2026-07-18T13:27:10.547136,1.00273135,.0002152,0.0096,28.9771,81.2041,75.6580,0,U,49056,999,1824,0,.119E-5,0
ZHONGXING-2E,2021-071A,2026-07-18T14:42:23.698656,1.00270147,.0001223,0.0158,236.0658,259.3284,119.7047,0,U,49062,999,1835,0,0,0
TJS-7,2021-077A,2026-07-18T12:45:07.078752,1.00272977,.00029356,0.2755,263.7731,113.2916,11.0268,0,U,49115,999,986,0,-.131E-5,0
CHINASAT 9B,2021-080A,2026-07-17T18:53:17.269152,1.00279615,.00027088,0.0520,245.4964,245.8201,188.9949,0,U,49125,999,1795,0,-.323E-5,0
SHIJIAN-21 (SJ-21),2021-094A,2026-07-18T19:48:48.023712,1.00276536,.0051531,5.1862,60.9875,168.9265,131.8764,0,U,49330,999,567,0,-.356E-5,0
SES-17,2021-095A,2026-07-18T12:54:21.193920,1.00269759,.00009282,0.0242,51.4920,62.0304,309.2974,0,U,49332,999,1816,0,-.279E-5,0
SYRACUSE 4A,2021-095B,2026-07-17T23:45:19.118304,1.00270419,.00016587,0.0194,65.4199,48.4658,223.7650,0,U,49333,999,1825,0,0,0
QZS-1R (MICHIBIKI-1R),2021-096A,2026-07-17T13:39:38.744352,1.00244494,.0755353,37.5223,79.1315,272.2799,280.3110,0,U,49336,999,1731,0,-.311E-5,0
ZHONGXING-1D,2021-114A,2026-07-18T13:50:40.978752,1.00266915,.00006002,0.0336,228.8891,21.5302,23.7492,0,U,49505,999,1713,0,-.344E-5,0
STPSAT-6,2021-118A,2026-07-18T12:41:37.413600,1.00270540,.00009005,0.3999,85.0988,249.1586,40.6736,0,U,49817,999,1688,0,-.52E-6,0
EXPRESS AMU-7,2021-123A,2026-07-18T13:54:55.571904,1.00272563,.00004758,0.0374,249.8850,62.4514,337.7739,0,U,50001,999,1685,0,-.25E-5,0
EXPRESS AMU-3,2021-123B,2026-07-16T21:29:32.083872,1.00271212,.00003461,0.0145,344.9181,324.0235,51.0553,0,U,50002,999,733,0,0,0
TIANLIAN 2-02,2021-124A,2026-07-18T12:19:39.518976,1.00271254,.000161,0.8810,85.6328,160.5317,46.0158,0,U,50005,999,1693,0,-.22E-6,0
TURKSAT 5B,2021-126A,2026-07-17T23:44:11.724576,1.00273048,.00023398,0.0702,339.9085,17.5014,336.4253,0,U,50212,999,1660,0,.137E-5,0
INMARSAT 6-F1,2021-128A,2026-07-17T23:42:43.024608,1.00269331,.00001535,0.0170,52.3223,46.2494,276.6649,0,U,50319,999,1656,0,0,0
SHIYAN-12 01 (SY-12 01),2021-129A,2026-07-18T19:20:58.970112,1.00053356,.0002602,3.7543,79.4846,289.2178,252.5659,0,U,50321,999,1681,0,.139E-5,0
SHIYAN-12 02 (SY-12 02),2021-129B,2026-07-18T19:48:11.098944,1.00475714,.0003171,3.7534,79.4840,68.1169,199.1085,0,U,50322,999,1681,0,-.37E-5,0
TJS-9,2021-135A,2026-07-18T13:52:40.787040,1.00271161,.00021443,0.0545,100.3531,331.8140,209.6286,0,U,50574,999,1674,0,-.306E-5,0
GOES 18,2022-021A,2026-07-18T14:23:38.723136,1.00272027,.00004707,0.0124,94.1316,73.8898,207.2831,0,U,51850,999,690,0,.9E-6,0
ZHONGXING-6D,2022-038A,2026-07-18T19:53:41.948736,1.00268466,.0000809,0.0003,355.2428,182.6071,182.1505,0,U,52255,999,1573,0,0,0
NILESAT 301,2022-061A,2026-07-18T09:46:09.805152,1.00270089,.00035864,0.0458,8.8297,73.3481,353.5693,0,U,52817,999,1505,0,-.66E-6,0
CMS-02 (GSAT-24),2022-067A,2026-07-18T16:07:26.131008,1.00272247,.00008896,0.0569,251.1428,112.2593,257.9061,0,U,52903,999,1492,0,-.171E-5,0
MEASAT 3D,2022-067B,2026-07-18T13:39:32.328288,1.00270657,.00005211,0.0372,323.9047,67.2801,201.5688,0,U,52904,999,1496,0,-.248E-5,0
SES-22,2022-071A,2026-07-18T07:25:51.934368,1.00273113,.00009325,0.0187,43.8180,65.5559,159.1880,0,U,52933,999,783,0,.96E-6,0
WFOV (USA 332),2022-073A,2026-07-18T13:06:38.697408,1.00275897,.00009978,3.7894,78.1315,187.8443,346.2978,0,U,52940,999,1468,0,-.371E-5,0
TIANLIAN 2-03,2022-078A,2026-07-18T13:16:34.064256,1.00269953,.00007866,0.7485,77.5371,17.0825,51.5054,0,U,53100,999,1486,0,.64E-6,0
SBIRS GEO-6 (USA 336),2022-092A,2026-07-18T08:45:13.325184,1.00270976,.00017988,3.2059,318.0118,153.3187,95.1384,0,U,53355,999,1454,0,-.298E-5,0
EUTELSAT KONNECT VHTS,2022-110A,2026-07-18T02:18:38.678400,1.00272523,.00028366,0.0581,99.2340,358.3461,235.6751,0,U,53765,999,714,0,.9E-7,0
ZHONGXING-1E,2022-112A,2026-07-18T13:36:47.591136,1.00270496,.00006613,0.0165,228.5289,41.6610,311.7994,0,U,53813,999,1416,0,0,0
SES-20,2022-123A,2026-07-18T12:44:07.175040,1.00269392,.00019489,0.0160,70.0235,23.2627,290.9643,0,U,53960,999,1384,0,-.108E-5,0
SES-21,2022-123B,2026-07-18T00:38:38.643360,1.00268201,.00009805,0.0393,41.1389,73.9584,59.4811,0,U,53961,999,752,0,0,0
GALAXY 33 (G-33),2022-128A,2026-07-18T14:15:38.763360,1.00270210,.00018873,0.0180,64.8986,48.9772,263.4088,0,U,54026,999,1405,0,.72E-6,0
GALAXY 34 (G-34),2022-128B,2026-07-18T11:22:38.762400,1.00268020,.00015872,0.0110,77.0016,51.6777,209.2388,0,U,54027,999,1422,0,.52E-6,0
ANGOSAT 2,2022-131A,2026-07-18T20:02:03.659712,1.00273801,.0000162,0.0170,128.1024,338.5810,153.4567,0,U,54033,999,1379,0,.129E-5,0
EUTELSAT HOTBIRD 13F,2022-134A,2026-07-18T08:09:38.769984,1.00272068,.00018752,0.0545,283.9616,75.6068,71.9943,0,U,54048,999,1368,0,.79E-6,0
LDPE-2,2022-144A,2026-07-18T05:39:07.137792,1.00544938,.000249,5.6718,63.2838,109.0484,80.9211,0,U,54219,999,1215,0,0,0
EUTELSAT HOTBIRD 13G,2022-146A,2026-07-18T08:09:14.474304,1.00271088,.0002093,0.0178,222.6649,313.2228,255.5866,0,U,54225,999,777,0,0,0
ZHONGXING-19,2022-148A,2026-07-18T12:17:24.734976,1.00271891,.0003189,0.0180,60.5154,77.3954,145.9326,0,U,54230,999,1369,0,-.89E-6,0
GALAXY 31 (G-31),2022-153A,2026-07-18T14:07:38.839008,1.00272302,.00011295,0.0206,94.6525,24.7798,267.8499,0,U,54243,999,744,0,.6E-7,0
GALAXY 32 (G-32),2022-153B,2026-07-18T12:47:36.840192,1.00272392,.00013879,0.0133,54.6817,353.5428,349.0126,0,U,54244,999,1345,0,-.182E-5,0
EUTELSAT 10B,2022-157A,2026-07-17T13:19:04.629216,1.00266999,.0001588,0.0610,95.5067,12.3958,37.1964,0,U,54259,999,1333,0,.58E-6,0
GALAXY 35 (G-35),2022-170A,2026-07-18T12:46:59.399616,1.00272220,.00019053,0.0154,92.9877,23.4325,278.5477,0,U,54741,999,1320,0,-.17E-5,0
GALAXY 36 (G-36),2022-170B,2026-07-18T12:48:06.791616,1.00271825,.00026548,0.0182,141.4627,317.0455,300.8518,0,U,54742,999,1308,0,-.192E-5,0
METEOSAT-12 (MTG-I1),2022-170C,2026-07-18T08:05:29.832576,1.00268639,.00039471,0.7285,20.2937,81.2750,315.5861,0,U,54743,999,1329,0,-.16E-6,0
SHIJIAN-23 (SJ-23),2023-002A,2026-07-18T19:51:30.123936,1.00075370,.0003409,3.7969,77.9147,274.1099,9.0286,0,U,55131,999,1282,0,-.364E-5,0
APSTAR-6E,2023-005A,2026-07-18T15:24:02.442816,1.00269926,.00025471,0.0141,259.3591,293.6661,108.4217,0,U,55239,999,1900,0,0,0
USA 342,2023-008A,2026-07-15T08:20:54.831840,1.00268904,.0000237,0.0068,33.1422,23.5747,25.6345,0,U,55263,999,1279,0,0,0
LDPE-3A,2023-008B,2026-07-18T13:33:38.500416,0.99148920,.00015861,2.4279,81.2768,72.8294,109.8437,0,U,55264,999,1212,0,-.256E-5,0
ELEKTRO-L 4,2023-016A,2026-07-17T17:14:40.045920,1.00270712,.00015516,0.1143,278.6047,257.1818,184.1945,0,U,55506,999,1264,0,-.68E-6,0
AMAZONAS NEXUS,2023-017A,2026-07-17T12:58:59.053728,1.00269616,.000443,0.0358,45.2576,42.1268,341.7092,0,U,55508,999,734,0,-.292E-5,0
ZHONGXING-26,2023-023A,2026-07-18T12:06:33.276384,1.00271220,.00033677,0.0638,71.5640,34.1118,137.3754,0,U,55686,999,1254,0,-.361E-5,0
LUCH-5X (OLYMP-K 2),2023-031A,2026-07-18T19:53:03.777216,1.00272916,.0001205,0.0278,94.8629,193.9310,8.0831,0,U,55841,999,1225,0,.26E-6,0
GAOFEN-13 02,2023-036A,2026-07-18T10:01:38.566272,1.00273908,.00036294,1.0288,5.0265,337.7918,252.0739,0,U,55912,999,1240,0,-.226E-5,0
SES-18,2023-038A,2026-07-18T12:44:07.175040,1.00270608,.00007871,0.0453,246.6027,311.7660,185.8866,0,U,55970,999,1241,0,-.108E-5,0
SES-19,2023-038B,2026-07-18T14:23:38.723136,1.00272044,.00017055,0.0485,266.4266,215.3652,255.5989,0,U,55971,999,1240,0,.81E-6,0
INTELSAT 40E (IS-40E),2023-052A,2026-07-18T12:47:36.840192,1.00271619,.00023335,0.0151,95.0813,48.6711,253.4842,0,U,56174,999,1213,0,-.181E-5,0
VIASAT-3 F1,2023-060A,2026-07-18T12:48:06.791616,1.00270645,.00006972,0.0124,32.8099,57.2205,309.3788,0,U,56370,999,1174,0,0,0
ARCTURUS,2023-060B,2026-07-18T13:42:54.505152,1.00593164,.00011854,2.8523,79.5488,133.0666,32.4246,0,U,56371,999,1177,0,-.357E-5,0
GS-1,2023-060C,2026-07-18T01:22:21.842400,1.00265953,.00033219,2.8021,79.4641,279.7673,46.4746,0,U,56372,999,784,0,-.231E-5,0
BEIDOU-3 G4,2023-066A,2026-07-18T15:21:03.193056,1.00271618,.00049995,0.4576,339.9371,185.0005,141.8333,0,U,56564,999,1170,0,-.288E-5,0
ARABSAT-7B (BADR-8),2023-075A,2026-07-18T11:38:18.427200,1.00270549,.00033775,0.0735,30.5021,1.6336,104.7151,0,U,56757,999,1143,0,.137E-5,0
